[{"OBJECT_NAME":"HAIYANG-1B","OBJECT_ID":"2007-010A","EPOCH":"2026-03-09T22:15:19.251360","MEAN_MOTION":14.3099952,"ECCENTRICITY":0.00143047,"INCLINATION":98.343,"RA_OF_ASC_NODE":54.6595,"ARG_OF_PERICENTER":132.0498,"MEAN_ANOMALY":228.1905,"EPHEMERIS_TYPE":0,"CLASSIFICATION_TYPE":"U","NORAD_CAT_ID":31113,"ELEMENT_SET_NO":999,"REV_AT_EPOCH":98643,"BSTAR":7.2604842e-5,"MEAN_MOTION_DOT":1.5e-6,"MEAN_MOTION_DDOT":0},{"OBJECT_NAME":"CZ-6A DEB","OBJECT_ID":"2024-140WV","EPOCH":"2026-03-09T14:07:40.342368","MEAN_MOTION":14.48825982,"ECCENTRICITY":0.0072173,"INCLINATION":89.1205,"RA_OF_ASC_NODE":291.7286,"ARG_OF_PERICENTER":268.5857,"MEAN_ANOMALY":90.7081,"EPHEMERIS_TYPE":0,"CLASSIFICATION_TYPE":"U","NORAD_CAT_ID":61380,"ELEMENT_SET_NO":999,"REV_AT_EPOCH":7981,"BSTAR":0.00058946,"MEAN_MOTION_DOT":2.315e-5,"MEAN_MOTION_DDOT":0}]
